[{"OBJECT_NAME":"ONEWEB-0155","OBJECT_ID":"2021-025R","EPOCH":"2026-03-09T17:24:01.943136","MEAN_MOTION":13.13470451,"ECCENTRICITY":0.00018946,"INCLINATION":87.9035,"RA_OF_ASC_NODE":340.0058,"ARG_OF_PERICENTER":80.0687,"MEAN_ANOMALY":280.0655,"EPHEMERIS_TYPE":0,"CLASSIFICATION_TYPE":"U","NORAD_CAT_ID":48057,"ELEMENT_SET_NO":999,"REV_AT_EPOCH":24062,"BSTAR":0.00063281228,"MEAN_MOTION_DOT":2.44e-6,"MEAN_MOTION_DDOT":0},{"OBJECT_NAME":"COSMOS 1067","OBJECT_ID":"1978-122A","EPOCH":"2026-03-09T20:01:41.619072","MEAN_MOTION":13.20232217,"ECCENTRICITY":0.00371434,"INCLINATION":82.9681,"RA_OF_ASC_NODE":281.3369,"ARG_OF_PERICENTER":77.9252,"MEAN_ANOMALY":293.5912,"EPHEMERIS_TYPE":0,"CLASSIFICATION_TYPE":"U","NORAD_CAT_ID":11168,"ELEMENT_SET_NO":999,"REV_AT_EPOCH":25799,"BSTAR":4.3367851e-5,"MEAN_MOTION_DOT":3.1e-7,"MEAN_MOTION_DDOT":0}]
